[{"OBJECT_NAME":"GHGSAT-C3","OBJECT_ID":"2022-057F","EPOCH":"2026-03-09T22:30:13.234752","MEAN_MOTION":15.32943835,"ECCENTRICITY":0.00073198,"INCLINATION":97.6431,"RA_OF_ASC_NODE":211.0668,"ARG_OF_PERICENTER":112.4588,"MEAN_ANOMALY":247.7429,"EPHEMERIS_TYPE":0,"CLASSIFICATION_TYPE":"U","NORAD_CAT_ID":52737,"ELEMENT_SET_NO":999,"REV_AT_EPOCH":21032,"BSTAR":0.00031249517,"MEAN_MOTION_DOT":9.871e-5,"MEAN_MOTION_DDOT":0},{"OBJECT_NAME":"STARLINK-34505","OBJECT_ID":"2025-133U","EPOCH":"2026-03-09T12:50:23.599968","MEAN_MOTION":15.30246488,"ECCENTRICITY":0.00016173,"INCLINATION":53.1584,"RA_OF_ASC_NODE":117.5822,"ARG_OF_PERICENTER":99.3261,"MEAN_ANOMALY":260.7923,"EPHEMERIS_TYPE":0,"CLASSIFICATION_TYPE":"U","NORAD_CAT_ID":64490,"ELEMENT_SET_NO":999,"REV_AT_EPOCH":4114,"BSTAR":0.0013245619,"MEAN_MOTION_DOT":0.00039134,"MEAN_MOTION_DDOT":0}]
